KUIPER-00272            
1 68588U 26072R   26197.97433340 -.00000339  00000+0 -15486-4 0  9994
2 68588  51.8999  61.4179 0000927 115.7749 244.3310 14.79933996 15562
KUIPER-00285            
1 68589U 26072S   26198.26607398  .00009665  00000+0  12959-2 0  9993
2 68589  51.9052  40.2049 0002158 143.5488 216.5622 14.79900812 15885
KUIPER-00286            
1 68590U 26072T   26198.25002315 -.00084214  00000+0 -11556-1 0  9998
2 68590  51.9004  37.3462 0002959 111.1803 343.6402 14.78447683  5092
KUIPER-00289            
1 68591U 26072U   26197.99050814 -.00000049  00000+0  22527-4 0  9992
2 68591  51.9000  46.3626 0000837 130.1298 229.9738 14.79930198 15776
KUIPER-00290            
1 68592U 26072V   26198.01792254 -.00003504  00000+0 -46907-3 0  9995
2 68592  51.9043  44.7729 0000993 125.5741 234.5313 14.76425980 15804
KUIPER-00293            
1 68593U 26072W   26198.04724540  .00000153  00000+0  49142-4 0  9992
2 68593  51.8998  56.0956 0003055 136.3346 223.7859 14.79930845 15645
KUIPER-00294            
1 68594U 26072X   26198.25002315 -.00034885  00000+0 -45701-2 0  9991
2 68594  51.8991  42.7134 0001748  50.3092 239.0941 14.79937013  4621
KUIPER-00296            
1 68595U 26072Y   26198.23428901  .00016059  00000+0  44205-3 0  9993
2 68595  51.8710  31.5266 0009467 126.7894 233.3963 15.37278595 16001
KUIPER-00297            
1 68596U 26072Z   26197.99584485  .00000846  00000+0  15140-3 0  9999
2 68596  51.9007  56.1312 0001158 138.4541 221.6508 14.76358581 15645
KUIPER-00300            
1 68597U 26072AA  26197.98757127  .00000992  00000+0  17174-3 0  9995
2 68597  51.9038  53.2254 0001804 136.4195 223.6909 14.76474941 15684
KUIPER-00301            
1 68598U 26072AB  26197.90390954  .00012409  00000+0  32789-3 0  9994
2 68598  51.8655  33.0158 0009573 130.2623 229.9202 15.38781091 15958
KUIPER-00304            
1 68599U 26072AC  26198.24322232 -.00431438  00000+0 -12187-1 0  9994
2 68599  51.8671  31.5461 0011464 131.5907 228.6064 15.37445305 16001
KUIPER-00317            
1 68600U 26072AD  26197.95943313 -.00001562  00000+0 -17590-3 0  9999
2 68600  51.8997  44.0110 0000720  78.0290 282.0753 14.79930386 15807
KUIPER-00320            
1 68601U 26072AE  26198.02156767  .00001498  00000+0  22542-3 0  9997
2 68601  51.9030  48.7265 0000673 110.2294 249.8741 14.79928440 15748
KUIPER-00299            
1 68864U 26095A   26198.18522323  .00000944  00000+0  16489-3 0  9993
2 68864  51.8985 116.6230 0001377 281.1293  78.9513 14.76474137 12070
KUIPER-00353            
1 68865U 26095B   26198.25002315 -.00034874  00000+0 -44757-2 0  9995
2 68865  51.8994 102.7270 0003290  61.4617  30.5095 14.80792112  5641
