{"fetched_at":"2026-07-17T17:37:51.795Z","source":"https://celestrak.org/NORAD/elements/gp.php?GROUP=kuiper&FORMAT=JSON","constellation":"kuiper","records":[{"OBJECT_NAME":"KUIPER-00272","OBJECT_ID":"2026-072R","EPOCH":"2026-07-16T23:23:02.405760","CLASSIFICATION_TYPE":"U","MEAN_MOTION":14.79933996,"ECCENTRICITY":0.00009274,"INCLINATION":51.8999,"RA_OF_ASC_NODE":61.4179,"ARG_OF_PERICENTER":115.7749,"MEAN_ANOMALY":244.331,"EPHEMERIS_TYPE":0,"NORAD_CAT_ID":68588,"ELEMENT_SET_NO":999,"REV_AT_EPOCH":1556,"BSTAR":-0.000015486157,"MEAN_MOTION_DOT":-0.00000339,"MEAN_MOTION_DDOT":0},{"OBJECT_NAME":"KUIPER-00285","OBJECT_ID":"2026-072S","EPOCH":"2026-07-17T06:23:08.791872","CLASSIFICATION_TYPE":"U","MEAN_MOTION":14.79900812,"ECCENTRICITY":0.00021589,"INCLINATION":51.9052,"RA_OF_ASC_NODE":40.2049,"ARG_OF_PERICENTER":143.5488,"MEAN_ANOMALY":216.5622,"EPHEMERIS_TYPE":0,"NORAD_CAT_ID":68589,"ELEMENT_SET_NO":999,"REV_AT_EPOCH":1588,"BSTAR":0.0012959282,"MEAN_MOTION_DOT":0.00009665,"MEAN_MOTION_DDOT":0},{"OBJECT_NAME":"KUIPER-00286","OBJECT_ID":"2026-072T","EPOCH":"2026-07-17T06:00:02.000160","CLASSIFICATION_TYPE":"U","MEAN_MOTION":14.78447683,"ECCENTRICITY":0.00029591,"INCLINATION":51.9004,"RA_OF_ASC_NODE":37.3462,"ARG_OF_PERICENTER":111.1803,"MEAN_ANOMALY":343.6402,"EPHEMERIS_TYPE":0,"NORAD_CAT_ID":68590,"ELEMENT_SET_NO":999,"REV_AT_EPOCH":509,"BSTAR":-0.011556156,"MEAN_MOTION_DOT":-0.00084214,"MEAN_MOTION_DDOT":0},{"OBJECT_NAME":"KUIPER-00289","OBJECT_ID":"2026-072U","EPOCH":"2026-07-16T23:46:19.903296","CLASSIFICATION_TYPE":"U","MEAN_MOTION":14.79930198,"ECCENTRICITY":0.00008377,"INCLINATION":51.9,"RA_OF_ASC_NODE":46.3626,"ARG_OF_PERICENTER":130.1298,"MEAN_ANOMALY":229.9738,"EPHEMERIS_TYPE":0,"NORAD_CAT_ID":68591,"ELEMENT_SET_NO":999,"REV_AT_EPOCH":1577,"BSTAR":0.000022526756,"MEAN_MOTION_DOT":-4.9e-7,"MEAN_MOTION_DDOT":0},{"OBJECT_NAME":"KUIPER-00290","OBJECT_ID":"2026-072V","EPOCH":"2026-07-17T00:25:48.507456","CLASSIFICATION_TYPE":"U","MEAN_MOTION":14.7642598,"ECCENTRICITY":0.00009931,"INCLINATION":51.9043,"RA_OF_ASC_NODE":44.7729,"ARG_OF_PERICENTER":125.5741,"MEAN_ANOMALY":234.5313,"EPHEMERIS_TYPE":0,"NORAD_CAT_ID":68592,"ELEMENT_SET_NO":999,"REV_AT_EPOCH":1580,"BSTAR":-0.0004690749,"MEAN_MOTION_DOT":-0.00003504,"MEAN_MOTION_DDOT":0},{"OBJECT_NAME":"KUIPER-00293","OBJECT_ID":"2026-072W","EPOCH":"2026-07-17T01:08:02.002560","CLASSIFICATION_TYPE":"U","MEAN_MOTION":14.79930845,"ECCENTRICITY":0.00030558,"INCLINATION":51.8998,"RA_OF_ASC_NODE":56.0956,"ARG_OF_PERICENTER":136.3346,"MEAN_ANOMALY":223.7859,"EPHEMERIS_TYPE":0,"NORAD_CAT_ID":68593,"ELEMENT_SET_NO":999,"REV_AT_EPOCH":1564,"BSTAR":0.000049141597,"MEAN_MOTION_DOT":0.00000153,"MEAN_MOTION_DDOT":0},{"OBJECT_NAME":"KUIPER-00294","OBJECT_ID":"2026-072X","EPOCH":"2026-07-17T06:00:02.000160","CLASSIFICATION_TYPE":"U","MEAN_MOTION":14.79937013,"ECCENTRICITY":0.00017488,"INCLINATION":51.8991,"RA_OF_ASC_NODE":42.7134,"ARG_OF_PERICENTER":50.3092,"MEAN_ANOMALY":239.0941,"EPHEMERIS_TYPE":0,"NORAD_CAT_ID":68594,"ELEMENT_SET_NO":999,"REV_AT_EPOCH":462,"BSTAR":-0.0045700753,"MEAN_MOTION_DOT":-0.00034885,"MEAN_MOTION_DDOT":0},{"OBJECT_NAME":"KUIPER-00296","OBJECT_ID":"2026-072Y","EPOCH":"2026-07-17T05:37:22.570464","CLASSIFICATION_TYPE":"U","MEAN_MOTION":15.37278595,"ECCENTRICITY":0.0009467,"INCLINATION":51.871,"RA_OF_ASC_NODE":31.5266,"ARG_OF_PERICENTER":126.7894,"MEAN_ANOMALY":233.3963,"EPHEMERIS_TYPE":0,"NORAD_CAT_ID":68595,"ELEMENT_SET_NO":999,"REV_AT_EPOCH":1600,"BSTAR":0.00044205241,"MEAN_MOTION_DOT":0.00016059,"MEAN_MOTION_DDOT":0},{"OBJECT_NAME":"KUIPER-00297","OBJECT_ID":"2026-072Z","EPOCH":"2026-07-16T23:54:00.995040","CLASSIFICATION_TYPE":"U","MEAN_MOTION":14.76358581,"ECCENTRICITY":0.00011585,"INCLINATION":51.9007,"RA_OF_ASC_NODE":56.1312,"ARG_OF_PERICENTER":138.4541,"MEAN_ANOMALY":221.6508,"EPHEMERIS_TYPE":0,"NORAD_CAT_ID":68596,"ELEMENT_SET_NO":999,"REV_AT_EPOCH":1564,"BSTAR":0.00015139561,"MEAN_MOTION_DOT":0.00000846,"MEAN_MOTION_DDOT":0},{"OBJECT_NAME":"KUIPER-00300","OBJECT_ID":"2026-072AA","EPOCH":"2026-07-16T23:42:06.157728","CLASSIFICATION_TYPE":"U","MEAN_MOTION":14.76474941,"ECCENTRICITY":0.00018048,"INCLINATION":51.9038,"RA_OF_ASC_NODE":53.2254,"ARG_OF_PERICENTER":136.4195,"MEAN_ANOMALY":223.6909,"EPHEMERIS_TYPE":0,"NORAD_CAT_ID":68597,"ELEMENT_SET_NO":999,"REV_AT_EPOCH":1568,"BSTAR":0.00017174108,"MEAN_MOTION_DOT":0.00000992,"MEAN_MOTION_DDOT":0},{"OBJECT_NAME":"KUIPER-00301","OBJECT_ID":"2026-072AB","EPOCH":"2026-07-16T21:41:37.784256","CLASSIFICATION_TYPE":"U","MEAN_MOTION":15.38781091,"ECCENTRICITY":0.0009573,"INCLINATION":51.8655,"RA_OF_ASC_NODE":33.0158,"ARG_OF_PERICENTER":130.2623,"MEAN_ANOMALY":229.9202,"EPHEMERIS_TYPE":0,"NORAD_CAT_ID":68598,"ELEMENT_SET_NO":999,"REV_AT_EPOCH":1595,"BSTAR":0.0003278911,"MEAN_MOTION_DOT":0.00012409,"MEAN_MOTION_DDOT":0},{"OBJECT_NAME":"KUIPER-00304","OBJECT_ID":"2026-072AC","EPOCH":"2026-07-17T05:50:14.408448","CLASSIFICATION_TYPE":"U","MEAN_MOTION":15.37445305,"ECCENTRICITY":0.0011464,"INCLINATION":51.8671,"RA_OF_ASC_NODE":31.5461,"ARG_OF_PERICENTER":131.5907,"MEAN_ANOMALY":228.6064,"EPHEMERIS_TYPE":0,"NORAD_CAT_ID":68599,"ELEMENT_SET_NO":999,"REV_AT_EPOCH":1600,"BSTAR":-0.012187414,"MEAN_MOTION_DOT":-0.00431438,"MEAN_MOTION_DDOT":0},{"OBJECT_NAME":"KUIPER-00317","OBJECT_ID":"2026-072AD","EPOCH":"2026-07-16T23:01:35.022432","CLASSIFICATION_TYPE":"U","MEAN_MOTION":14.79930386,"ECCENTRICITY":0.000072,"INCLINATION":51.8997,"RA_OF_ASC_NODE":44.011,"ARG_OF_PERICENTER":78.029,"MEAN_ANOMALY":282.0753,"EPHEMERIS_TYPE":0,"NORAD_CAT_ID":68600,"ELEMENT_SET_NO":999,"REV_AT_EPOCH":1580,"BSTAR":-0.00017589532,"MEAN_MOTION_DOT":-0.00001562,"MEAN_MOTION_DDOT":0},{"OBJECT_NAME":"KUIPER-00320","OBJECT_ID":"2026-072AE","EPOCH":"2026-07-17T00:31:03.446688","CLASSIFICATION_TYPE":"U","MEAN_MOTION":14.7992844,"ECCENTRICITY":0.00006733,"INCLINATION":51.903,"RA_OF_ASC_NODE":48.7265,"ARG_OF_PERICENTER":110.2294,"MEAN_ANOMALY":249.8741,"EPHEMERIS_TYPE":0,"NORAD_CAT_ID":68601,"ELEMENT_SET_NO":999,"REV_AT_EPOCH":1574,"BSTAR":0.00022541998,"MEAN_MOTION_DOT":0.00001498,"MEAN_MOTION_DDOT":0},{"OBJECT_NAME":"KUIPER-00299","OBJECT_ID":"2026-095A","EPOCH":"2026-07-17T04:26:43.287072","CLASSIFICATION_TYPE":"U","MEAN_MOTION":14.76474137,"ECCENTRICITY":0.00013775,"INCLINATION":51.8985,"RA_OF_ASC_NODE":116.623,"ARG_OF_PERICENTER":281.1293,"MEAN_ANOMALY":78.9513,"EPHEMERIS_TYPE":0,"NORAD_CAT_ID":68864,"ELEMENT_SET_NO":999,"REV_AT_EPOCH":1207,"BSTAR":0.00016488559,"MEAN_MOTION_DOT":0.00000944,"MEAN_MOTION_DDOT":0},{"OBJECT_NAME":"KUIPER-00353","OBJECT_ID":"2026-095B","EPOCH":"2026-07-17T06:00:02.000160","CLASSIFICATION_TYPE":"U","MEAN_MOTION":14.80792112,"ECCENTRICITY":0.00032904,"INCLINATION":51.8994,"RA_OF_ASC_NODE":102.727,"ARG_OF_PERICENTER":61.4617,"MEAN_ANOMALY":30.5095,"EPHEMERIS_TYPE":0,"NORAD_CAT_ID":68865,"ELEMENT_SET_NO":999,"REV_AT_EPOCH":564,"BSTAR":-0.0044757421,"MEAN_MOTION_DOT":-0.00034874,"MEAN_MOTION_DDOT":0}]}
